{
  "type": "FeatureCollection",
  "features": [
    {
      "type": "Feature",
      "properties": {
        "norad_id": 30218,
        "name": "FENGYUN 1C DEB",
        "group": "fengyun-1c-debris",
        "lat": 45.87042644939158,
        "lon": -86.52426826222163,
        "alt_km": 798.5074574813389,
        "timestamp": "2025-12-20T11:30:28.651893+00:00",
        "meta_object_name": "FENGYUN 1C DEB",
        "meta_object_id": "1999-025WB",
        "meta_epoch": "2025-12-18T05:14:14.517312",
        "meta_mean_motion": 14.28872853,
        "meta_eccentricity": 0.00708922,
        "meta_inclination": 98.9877,
        "meta_ra_of_asc_node": 81.7565,
        "meta_arg_of_pericenter": 238.3135,
        "meta_mean_anomaly": 150.3932,
        "meta_ephemeris_type": 0,
        "meta_classification_type": "U",
        "meta_norad_cat_id": 30218,
        "meta_element_set_no": 999,
        "meta_rev_at_epoch": 97187,
        "meta_bstar": 0.0020912898,
        "meta_mean_motion_dot": 5.378e-05,
        "meta_mean_motion_ddot": 0,
        "tle_line1": "1 30218U 99025WB  25352.21822358  .00005378  00000+0  20913-2 0  9996",
        "tle_line2": "2 30218  98.9877  81.7565 0070892 238.3135 150.3932 14.28872853971870"
      },
      "geometry": {
        "type": "Point",
        "coordinates": [
          -86.52426826222163,
          45.87042644939158
        ]
      }
    },
    {
      "type": "Feature",
      "properties": {
        "norad_id": 30221,
        "name": "FENGYUN 1C DEB",
        "group": "fengyun-1c-debris",
        "lat": 20.94319522222004,
        "lon": -93.96392087438774,
        "alt_km": 818.0578338177011,
        "timestamp": "2025-12-20T11:30:28.651903+00:00",
        "meta_object_name": "FENGYUN 1C DEB",
        "meta_object_id": "1999-025WE",
        "meta_epoch": "2025-12-20T04:08:24.864000",
        "meta_mean_motion": 14.4582503,
        "meta_eccentricity": 0.0145077,
        "meta_inclination": 98.956,
        "meta_ra_of_asc_node": 82.2518,
        "meta_arg_of_pericenter": 19.2748,
        "meta_mean_anomaly": 341.3851,
        "meta_ephemeris_type": 0,
        "meta_classification_type": "U",
        "meta_norad_cat_id": 30221,
        "meta_element_set_no": 999,
        "meta_rev_at_epoch": 99508,
        "meta_bstar": 0.00013761,
        "meta_mean_motion_dot": 5e-06,
        "meta_mean_motion_ddot": 0,
        "tle_line1": "1 30221U 99025WE  25354.17251000  .00000500  00000+0  13761-3 0  9993",
        "tle_line2": "2 30221  98.9560  82.2518 0145077  19.2748 341.3851 14.45825030995086"
      },
      "geometry": {
        "type": "Point",
        "coordinates": [
          -93.96392087438774,
          20.94319522222004
        ]
      }
    },
    {
      "type": "Feature",
      "properties": {
        "norad_id": 30222,
        "name": "FENGYUN 1C DEB",
        "group": "fengyun-1c-debris",
        "lat": 51.43951646473853,
        "lon": 16.397439289463843,
        "alt_km": 853.030986253093,
        "timestamp": "2025-12-20T11:30:28.651913+00:00",
        "meta_object_name": "FENGYUN 1C DEB",
        "meta_object_id": "1999-025WF",
        "meta_epoch": "2025-12-20T01:17:13.707168",
        "meta_mean_motion": 14.0407562,
        "meta_eccentricity": 0.0037528,
        "meta_inclination": 98.8401,
        "meta_ra_of_asc_node": 27.2408,
        "meta_arg_of_pericenter": 16.8415,
        "meta_mean_anomaly": 43.8507,
        "meta_ephemeris_type": 0,
        "meta_classification_type": "U",
        "meta_norad_cat_id": 30222,
        "meta_element_set_no": 999,
        "meta_rev_at_epoch": 96941,
        "meta_bstar": 0.00010497,
        "meta_mean_motion_dot": 1.24e-06,
        "meta_mean_motion_ddot": 0,
        "tle_line1": "1 30222U 99025WF  25354.05363087  .00000124  00000+0  10497-3 0  9995",
        "tle_line2": "2 30222  98.8401  27.2408 0037528  16.8415  43.8507 14.04075620969419"
      },
      "geometry": {
        "type": "Point",
        "coordinates": [
          16.397439289463843,
          51.43951646473853
        ]
      }
    },
    {
      "type": "Feature",
      "properties": {
        "norad_id": 30224,
        "name": "FENGYUN 1C DEB",
        "group": "fengyun-1c-debris",
        "lat": -18.349899890383014,
        "lon": -149.80542614628482,
        "alt_km": 978.6914915382549,
        "timestamp": "2025-12-20T11:30:28.651922+00:00",
        "meta_object_name": "FENGYUN 1C DEB",
        "meta_object_id": "1999-025WH",
        "meta_epoch": "2025-12-20T02:03:46.217376",
        "meta_mean_motion": 13.89872896,
        "meta_eccentricity": 0.0110981,
        "meta_inclination": 99.4831,
        "meta_ra_of_asc_node": 32.9717,
        "meta_arg_of_pericenter": 323.5337,
        "meta_mean_anomaly": 67.9519,
        "meta_ephemeris_type": 0,
        "meta_classification_type": "U",
        "meta_norad_cat_id": 30224,
        "meta_element_set_no": 999,
        "meta_rev_at_epoch": 95843,
        "meta_bstar": 0.00028613,
        "meta_mean_motion_dot": 3.23e-06,
        "meta_mean_motion_ddot": 0,
        "tle_line1": "1 30224U 99025WH  25354.08595159  .00000323  00000+0  28613-3 0  9997",
        "tle_line2": "2 30224  99.4831  32.9717 0110981 323.5337  67.9519 13.89872896958439"
      },
      "geometry": {
        "type": "Point",
        "coordinates": [
          -149.80542614628482,
          -18.349899890383014
        ]
      }
    },
    {
      "type": "Feature",
      "properties": {
        "norad_id": 30225,
        "name": "FENGYUN 1C DEB",
        "group": "fengyun-1c-debris",
        "lat": -8.305637410618216,
        "lon": 22.300325713779067,
        "alt_km": 822.838852645531,
        "timestamp": "2025-12-20T11:30:28.651932+00:00",
        "meta_object_name": "FENGYUN 1C DEB",
        "meta_object_id": "1999-025WJ",
        "meta_epoch": "2025-12-19T00:15:57.318048",
        "meta_mean_motion": 14.15188349,
        "meta_eccentricity": 0.010038,
        "meta_inclination": 98.6591,
        "meta_ra_of_asc_node": 19.6,
        "meta_arg_of_pericenter": 68.1666,
        "meta_mean_anomaly": 7.7254,
        "meta_ephemeris_type": 0,
        "meta_classification_type": "U",
        "meta_norad_cat_id": 30225,
        "meta_element_set_no": 999,
        "meta_rev_at_epoch": 97625,
        "meta_bstar": 0.00014005753,
        "meta_mean_motion_dot": 2.44e-06,
        "meta_mean_motion_ddot": 0,
        "tle_line1": "1 30225U 99025WJ  25353.01108007  .00000244  00000+0  14006-3 0  9995",
        "tle_line2": "2 30225  98.6591  19.6000 0100380  68.1666   7.7254 14.15188349976251"
      },
      "geometry": {
        "type": "Point",
        "coordinates": [
          22.300325713779067,
          -8.305637410618216
        ]
      }
    },
    {
      "type": "Feature",
      "properties": {
        "norad_id": 30229,
        "name": "FENGYUN 1C DEB",
        "group": "fengyun-1c-debris",
        "lat": 54.5991818930895,
        "lon": 41.855386603940005,
        "alt_km": 665.4401461523939,
        "timestamp": "2025-12-20T11:30:28.651942+00:00",
        "meta_object_name": "FENGYUN 1C DEB",
        "meta_object_id": "1999-025WN",
        "meta_epoch": "2025-12-20T03:10:14.151936",
        "meta_mean_motion": 14.60658718,
        "meta_eccentricity": 0.0037046,
        "meta_inclination": 99.062,
        "meta_ra_of_asc_node": 54.4533,
        "meta_arg_of_pericenter": 17.7365,
        "meta_mean_anomaly": 12.0408,
        "meta_ephemeris_type": 0,
        "meta_classification_type": "U",
        "meta_norad_cat_id": 30229,
        "meta_element_set_no": 999,
        "meta_rev_at_epoch": 99034,
        "meta_bstar": 0.0010801,
        "meta_mean_motion_dot": 5.255e-05,
        "meta_mean_motion_ddot": 0,
        "tle_line1": "1 30229U 99025WN  25354.13210824  .00005255  00000+0  10801-2 0  9999",
        "tle_line2": "2 30229  99.0620  54.4533 0037046  17.7365  12.0408 14.60658718990343"
      },
      "geometry": {
        "type": "Point",
        "coordinates": [
          41.855386603940005,
          54.5991818930895
        ]
      }
    },
    {
      "type": "Feature",
      "properties": {
        "norad_id": 30231,
        "name": "FENGYUN 1C DEB",
        "group": "fengyun-1c-debris",
        "lat": -1.5829700120971038,
        "lon": 39.34068014043256,
        "alt_km": 765.1880543713423,
        "timestamp": "2025-12-20T11:30:28.651952+00:00",
        "meta_object_name": "FENGYUN 1C DEB",
        "meta_object_id": "1999-025WQ",
        "meta_epoch": "2025-12-19T01:35:19.135680",
        "meta_mean_motion": 14.11658356,
        "meta_eccentricity": 0.01281271,
        "meta_inclination": 98.8047,
        "meta_ra_of_asc_node": 37.7082,
        "meta_arg_of_pericenter": 11.3282,
        "meta_mean_anomaly": 9.0379,
        "meta_ephemeris_type": 0,
        "meta_classification_type": "U",
        "meta_norad_cat_id": 30231,
        "meta_element_set_no": 999,
        "meta_rev_at_epoch": 97109,
        "meta_bstar": 0.00048509925,
        "meta_mean_motion_dot": 9.1e-06,
        "meta_mean_motion_ddot": 0,
        "tle_line1": "1 30231U 99025WQ  25353.06619370  .00000910  00000+0  48510-3 0  9994",
        "tle_line2": "2 30231  98.8047  37.7082 0128127  11.3282   9.0379 14.11658356971096"
      },
      "geometry": {
        "type": "Point",
        "coordinates": [
          39.34068014043256,
          -1.5829700120971038
        ]
      }
    }
  ]
}